<?xml version="1.0" encoding="UTF-8"?>
<kml xmlns="http://www.opengis.net/kml/2.2">
  <Document>
    <name>Cabang Bank Mandiri – Portal Akuisisi Merchant</name>
    <description>27 Kantor Cabang (KC) wilayah Kalimantan Timur &amp; Utara</description>

    <!-- Style: Balikpapan (biru Mandiri) -->
    <Style id="balikpapan">
      <IconStyle>
        <color>ffb37803</color>
        <scale>1.1</scale>
        <Icon><href>http://maps.google.com/mapfiles/kml/paddle/B.png</href></Icon>
      </IconStyle>
    </Style>

    <!-- Style: Luar Balikpapan (kuning) -->
    <Style id="luar">
      <IconStyle>
        <color>ff00aaff</color>
        <scale>1.0</scale>
        <Icon><href>http://maps.google.com/mapfiles/kml/paddle/ylw-circle.png</href></Icon>
      </IconStyle>
    </Style>

    <!-- ── BALIKPAPAN (11 cabang) ── -->
    <Folder>
      <name>Balikpapan</name>
      <Placemark>
        <name>KC Klandasan</name>
        <description>Kode: KC_KLANDASAN | Kota: Balikpapan</description>
        <styleUrl>#balikpapan</styleUrl>
        <Point><coordinates>116.8286,-1.2780,0</coordinates></Point>
      </Placemark>
      <Placemark>
        <name>KC Suprapto</name>
        <description>Kode: KC_SUPRAPTO | Kota: Balikpapan</description>
        <styleUrl>#balikpapan</styleUrl>
        <Point><coordinates>116.8296,-1.2683,0</coordinates></Point>
      </Placemark>
      <Placemark>
        <name>KC Ahmad Yani</name>
        <description>Kode: KC_AHMAD_YANI | Kota: Balikpapan</description>
        <styleUrl>#balikpapan</styleUrl>
        <Point><coordinates>116.8411,-1.2600,0</coordinates></Point>
      </Placemark>
      <Placemark>
        <name>KC Sudirman</name>
        <description>Kode: KC_SUDIRMAN | Kota: Balikpapan</description>
        <styleUrl>#balikpapan</styleUrl>
        <Point><coordinates>116.8329,-1.2640,0</coordinates></Point>
      </Placemark>
      <Placemark>
        <name>KC Balikpapan Baru</name>
        <description>Kode: KC_BALIKPAPAN_BARU | Kota: Balikpapan</description>
        <styleUrl>#balikpapan</styleUrl>
        <Point><coordinates>116.8502,-1.2408,0</coordinates></Point>
      </Placemark>
      <Placemark>
        <name>KC Karang Jati</name>
        <description>Kode: KC_KARANG_JATI | Kota: Balikpapan</description>
        <styleUrl>#balikpapan</styleUrl>
        <Point><coordinates>116.8349,-1.2511,0</coordinates></Point>
      </Placemark>
      <Placemark>
        <name>KC Batakan</name>
        <description>Kode: KC_BATAKAN | Kota: Balikpapan</description>
        <styleUrl>#balikpapan</styleUrl>
        <Point><coordinates>116.8205,-1.3117,0</coordinates></Point>
      </Placemark>
      <Placemark>
        <name>KC Telkom Divre VI</name>
        <description>Kode: KC_TELKOM_DIVRE | Kota: Balikpapan</description>
        <styleUrl>#balikpapan</styleUrl>
        <Point><coordinates>116.8504,-1.2634,0</coordinates></Point>
      </Placemark>
      <Placemark>
        <name>KC Muara Rapak</name>
        <description>Kode: KC_MUARA_RAPAK | Kota: Balikpapan</description>
        <styleUrl>#balikpapan</styleUrl>
        <Point><coordinates>116.8384,-1.2079,0</coordinates></Point>
      </Placemark>
      <Placemark>
        <name>KC Superblock</name>
        <description>Kode: KC_SUPERBLOCK | Kota: Balikpapan</description>
        <styleUrl>#balikpapan</styleUrl>
        <Point><coordinates>116.8447,-1.2554,0</coordinates></Point>
      </Placemark>
      <Placemark>
        <name>KC Soekarno Hatta</name>
        <description>Kode: KC_SOEKARNO_HATTA | Kota: Balikpapan</description>
        <styleUrl>#balikpapan</styleUrl>
        <Point><coordinates>116.8615,-1.2265,0</coordinates></Point>
      </Placemark>
    </Folder>

    <!-- ── PASER (4 cabang) ── -->
    <Folder>
      <name>Paser</name>
      <Placemark>
        <name>KC Tanah Grogot</name>
        <description>Kode: KC_TANAH_GROGOT | Kota: Paser</description>
        <styleUrl>#luar</styleUrl>
        <Point><coordinates>116.2167,-1.9167,0</coordinates></Point>
      </Placemark>
      <Placemark>
        <name>KC Batu Kajang</name>
        <description>Kode: KC_BATU_KAJANG | Kota: Paser</description>
        <styleUrl>#luar</styleUrl>
        <Point><coordinates>115.9833,-1.9547,0</coordinates></Point>
      </Placemark>
      <Placemark>
        <name>KC Simpang Pait</name>
        <description>Kode: KC_SIMPANG_PAIT | Kota: Paser</description>
        <styleUrl>#luar</styleUrl>
        <Point><coordinates>115.9833,-1.8947,0</coordinates></Point>
      </Placemark>
      <Placemark>
        <name>KC Pase Kuaro</name>
        <description>Kode: KC_PASE_KUARO | Kota: Paser</description>
        <styleUrl>#luar</styleUrl>
        <Point><coordinates>116.2400,-1.9700,0</coordinates></Point>
      </Placemark>
    </Folder>

    <!-- ── PPU / IKN (3 cabang) ── -->
    <Folder>
      <name>PPU / IKN</name>
      <Placemark>
        <name>KC Penajem Paser Utara</name>
        <description>Kode: KC_PENAJEM_PASER | Kota: PPU</description>
        <styleUrl>#luar</styleUrl>
        <Point><coordinates>116.4167,-1.3517,0</coordinates></Point>
      </Placemark>
      <Placemark>
        <name>KC Sepaku (IKN)</name>
        <description>Kode: KC_SEPAKU | Kota: PPU (IKN)</description>
        <styleUrl>#luar</styleUrl>
        <Point><coordinates>116.9169,-1.1847,0</coordinates></Point>
      </Placemark>
      <Placemark>
        <name>KC Babulu Darat</name>
        <description>Kode: KC_BABULU_DARAT | Kota: PPU</description>
        <styleUrl>#luar</styleUrl>
        <Point><coordinates>116.2000,-1.7500,0</coordinates></Point>
      </Placemark>
    </Folder>

    <!-- ── BERAU (1 cabang) ── -->
    <Folder>
      <name>Berau</name>
      <Placemark>
        <name>KC Tanjung Redeb</name>
        <description>Kode: KC_TANJUNG_REDEB | Kota: Berau</description>
        <styleUrl>#luar</styleUrl>
        <Point><coordinates>117.5000,2.1333,0</coordinates></Point>
      </Placemark>
    </Folder>

    <!-- ── TARAKAN (2 cabang) ── -->
    <Folder>
      <name>Tarakan</name>
      <Placemark>
        <name>KC Tarakan Yos Sudarso</name>
        <description>Kode: KC_TARAKAN_YOS | Kota: Tarakan</description>
        <styleUrl>#luar</styleUrl>
        <Point><coordinates>117.5789,3.3166,0</coordinates></Point>
      </Placemark>
      <Placemark>
        <name>KC Tarakan Simpang Tiga</name>
        <description>Kode: KC_TARAKAN_SIMPANG | Kota: Tarakan</description>
        <styleUrl>#luar</styleUrl>
        <Point><coordinates>117.5700,3.3100,0</coordinates></Point>
      </Placemark>
    </Folder>

    <!-- ── NUNUKAN (2 cabang) ── -->
    <Folder>
      <name>Nunukan</name>
      <Placemark>
        <name>KC Nunukan</name>
        <description>Kode: KC_NUNUKAN | Kota: Nunukan</description>
        <styleUrl>#luar</styleUrl>
        <Point><coordinates>117.6682,4.1373,0</coordinates></Point>
      </Placemark>
      <Placemark>
        <name>KC Pulau Sebatik</name>
        <description>Kode: KC_PULAU_SEBATIK | Kota: Nunukan</description>
        <styleUrl>#luar</styleUrl>
        <Point><coordinates>117.7500,4.2000,0</coordinates></Point>
      </Placemark>
    </Folder>

    <!-- ── TANJUNG SELOR (2 cabang) ── -->
    <Folder>
      <name>Tanjung Selor</name>
      <Placemark>
        <name>KC Tanjung Selor</name>
        <description>Kode: KC_TANJUNG_SELOR | Kota: Tanjung Selor</description>
        <styleUrl>#luar</styleUrl>
        <Point><coordinates>117.3733,2.8291,0</coordinates></Point>
      </Placemark>
      <Placemark>
        <name>KC Tanjung Selor Senkawit</name>
        <description>Kode: KC_TANJSEL_SENKAWIT | Kota: Tanjung Selor</description>
        <styleUrl>#luar</styleUrl>
        <Point><coordinates>117.3900,2.8400,0</coordinates></Point>
      </Placemark>
    </Folder>

    <!-- ── MALINAU (1 cabang) ── -->
    <Folder>
      <name>Malinau</name>
      <Placemark>
        <name>KC Malinau</name>
        <description>Kode: KC_MALINAU | Kota: Malinau</description>
        <styleUrl>#luar</styleUrl>
        <Point><coordinates>116.6289,3.5847,0</coordinates></Point>
      </Placemark>
    </Folder>

    <!-- ── PULAU BUNYU (1 cabang) ── -->
    <Folder>
      <name>Pulau Bunyu</name>
      <Placemark>
        <name>KC Pulau Bunyu</name>
        <description>Kode: KC_PULAU_BUNYU | Kota: Pulau Bunyu</description>
        <styleUrl>#luar</styleUrl>
        <Point><coordinates>117.8667,3.4667,0</coordinates></Point>
      </Placemark>
    </Folder>

  </Document>
</kml>
